USA 153                 
1 26575U 00065A   22128.63490069 -.00000317  00000+0  00000+0 0  9998
2 26575   9.0350  45.9741 0001980 353.2647 190.1294  1.00276449 17885
AMC-6 (GE-6)            
1 26580U 00067A   22129.57997453  .00000111  00000+0  00000+0 0  9990
2 26580   0.0121 327.7801 0002455  86.1400 243.2371  1.00272407 78886
NAVSTAR 49 (USA 154)    
1 26605U 00071A   22129.23229856  .00000079  00000+0  00000+0 0  9994
2 26605  55.0872 154.2128 0135420 254.0295 150.9421  2.00561862157435
INTELSAT 1R (IS-1R)     
1 26608U 00072A   22129.49896654 -.00000130  00000+0  00000+0 0  9991
2 26608   4.3785  80.5043 0000271 285.8368 197.7081  1.00271771 26288
ANIK F1                 
1 26624U 00076A   22129.52067637 -.00000055  00000+0  00000+0 0  9994
2 26624   1.3369  93.0064 0009942 338.3676 234.2202  1.00272095 28108
ASTRA 2D                
1 26638U 00081A   22128.97315396  .00000138  00000+0  00000+0 0  9992
2 26638   7.2122  60.5727 0001888 342.4668 197.7975  1.00276962 37868
AMC-8 (GE-8)            
1 26639U 00081B   22129.58480611  .00000095  00000+0  00000+0 0  9996
2 26639   2.3508  88.9690 0002934 327.6022 246.3347  1.00272104 78298
NAVSTAR 50 (USA 156)    
1 26690U 01004A   22129.37479983  .00000016  00000+0  00000+0 0  9999
2 26690  53.9306  88.0990 0003771 307.2496 230.9579  1.91595308154808
ODIN                    
1 26702U 01007A   22129.55202686  .00002324  00000+0  14809-3 0  9990
2 26702  97.5229 145.0080 0012201  68.6849 291.5681 15.09658141160401
USA 157 (MILSTAR-2 2)   
1 26715U 01009A   22129.42024903  .00000021  00000+0  00000+0 0  9992
2 26715   9.9786  27.3475 0001994  21.3205 205.5574  1.00275625 17910
EUTELSAT 133 WEST A     
1 26719U 01011A   22129.58805451  .00000085  00000+0  00000+0 0  9991
2 26719   3.6186  83.1153 0002178 332.7030 250.4107  1.00271654 77502
BSAT-2A                 
1 26720U 01011B   22128.90936778  .00000091  00000+0  00000+0 0  9992
2 26720   7.5299  59.2635 0002667  23.4074 175.2321  0.99174806 77090
INTELSAT 10 (IS-10)     
1 26766U 01019A   22129.52467581  .00000043  00000+0  00000+0 0  9997
2 26766   5.4871  73.6864 0004536 331.5624 188.7377  1.00271921 30580
INTELSAT 901 (IS-901)   
1 26824U 01024A   22129.46522153 -.00000195  00000+0  00000+0 0  9997
2 26824   0.0418  90.6197 0000939 327.9937 308.6503  1.00277441  7930
ASTRA 2C                
1 26853U 01025A   22129.38445644 -.00000250  00000+0  00000+0 0  9992
2 26853   4.4749  79.6358 0002807 337.8554 235.6245  1.00270052 30001
OMNI-M1                 
1 26857U 01026A   22121.85341845 -.00000011  00000+0  00000+0 0  9994
2 26857  44.8024 232.1708 0015088  46.3341 313.8183  3.92402437146415
USA 159 (DSP 21)        
1 26880U 01033A   22129.10214104 -.00000290  00000+0  00000+0 0  9990
2 26880  11.3913  26.0229 0000241 132.6967  55.9422  1.00271010 17924
INTELSAT 902 (IS-902)   
1 26900U 01039A   22129.46068617 -.00000275  00000+0  00000+0 0  9997
2 26900   2.3093  89.3939 0003346 330.6396 282.9645  1.00269963 75658
PCSAT (NO-44)           
1 26931U 01043C   22129.44408326  .00000064  00000+0  56207-4 0  9999
2 26931  67.0495 159.0871 0007981 269.0875  90.9312 14.30692823 75821
PROBA-1                 
1 26958U 01049B   22129.51111192  .00001879  00000+0  16306-3 0  9994
2 26958  97.8188  89.4276 0073468 113.7025 247.1926 14.96229771118656
BIRD 2                  
1 26959U 01049C   22129.49156777  .00012591  00000+0  28481-3 0  9990
2 26959  97.7606 218.6782 0007839 146.3487 213.8259 15.43274033447177
TIMED                   
1 26998U 01055B   22129.33183753  .00000626  00000+0  71233-4 0  9997
2 26998  74.0735 357.5821 0002071 251.3671 108.7285 14.88610510107180
MAROC-TUBSAT            
1 27004U 01056D   22129.39802194 -.00000014  00000+0  35856-4 0  9993
2 27004  99.6188 269.7936 0020278  35.2725  27.2625 13.70156030 20799
COSMOS 2385             
1 27056U 01058B   22129.49403970 -.00000001  00000+0 -68439-4 0  9992
2 27056  82.5342  98.9203 0006825  26.1425 334.0009 12.60517364936998
COSMOS 2386             
1 27057U 01058C   22126.82506235  .00000011  00000+0  21150-5 0  9994
2 27057  82.5411  95.9398 0000879 101.8053 258.3138 12.61564846937416
USA 164 (MILSTAR-2 3)   
1 27168U 02001A   22128.96229975  .00000107  00000+0  00000+0 0  9997
2 27168   9.4679  29.1796 0001870 351.7690 211.1940  1.00270666 16601
RHESSI                  
1 27370U 02004A   22129.50332492  .00017984  00000+0  41146-3 0  9996
2 27370  38.0319 245.3455 0007167 247.8946 112.1067 15.42127801120590
ECHOSTAR 7              
1 27378U 02006A   22129.56362045 -.00000276  00000+0  00000+0 0  9996
2 27378   0.1430  90.8504 0005912 322.6351 164.9352  0.99850215 35560
INTELSAT 904 (IS-904)   
1 27380U 02007A   22129.46487264 -.00000205  00000+0  00000+0 0  9992
2 27380   3.1408  86.3206 0003001 321.4257 317.3728  1.00272610 36729
TDRS 9                  
1 27389U 02011A   22129.17130500 -.00000279  00000+0  00000+0 0  9993
2 27389   8.9389  61.1718 0026558 302.8124 222.4099  1.00275447 75402
ASTRA 3A                
1 27400U 02015B   22129.30988493 -.00000196  00000+0  00000+0 0  9996
2 27400   7.3156  59.4262 0001717 325.6690 226.7940  1.00273738 73687
NSS-7                   
1 27414U 02019A   22129.28382736 -.00000150  00000+0  00000+0 0  9990
2 27414   5.8108  71.6252 0002575 338.2351 259.3807  1.00271802 73521
AQUA                    
1 27424U 02022A   22129.58346929  .00000492  00000+0  11893-3 0  9996
2 27424  98.2451  71.8490 0001582  60.0358 112.9020 14.57249176 64525
DIRECTV 5 (TEMPO 1)     
1 27426U 02023A   22129.52050192 -.00000049  00000+0  00000+0 0  9990
2 27426   1.0296  93.5469 0003453 324.3637 246.6646  1.00271758 73083
INTELSAT 905 (IS-905)   
1 27438U 02027A   22129.46557038 -.00000176  00000+0  00000+0 0  9992
2 27438   2.9621  87.0693 0002688 307.7062 335.6029  1.00272723 36324
GALAXY 3C (G-3C)        
1 27445U 02030A   22129.38000831 -.00000145  00000+0  00000+0 0  9995
2 27445   0.0191  10.0380 0001698 304.8375 314.0745  1.00270810 31468
EUTELSAT 5 WEST A       
1 27460U 02035A   22129.16785630 -.00000035  00000+0  00000+0 0  9998
2 27460   2.2202  89.7404 0005915 314.3970 238.2747  1.00272894 72575
COSMOS 2390             
1 27464U 02036A   22129.43562778  .00000033  00000+0  16284-3 0  9991
2 27464  82.4880 202.6655 0024003 300.1217  59.7483 12.44580552901253
COSMOS 2391             
1 27465U 02036B   22129.43766533  .00000024  00000+0  10110-3 0  9999
2 27465  82.4870 199.8142 0024812 295.9227  63.9295 12.44900843901472
METEOSAT-8 (MSG-1)      
1 27509U 02040B   22128.90491963  .00000143  00000+0  00000+0 0  9991
2 27509   7.9663  50.8592 0002984 319.1091 223.9464  1.00270328 72217
INTELSAT 906 (IS-906)   
1 27513U 02041A   22129.48353733  .00000021  00000+0  00000+0 0  9998
2 27513   1.9770  90.8959 0003792 326.2580  48.3376  1.00272909 71998
HISPASAT 30W-4          
1 27528U 02044A   22129.57473240  .00000124  00000+0  00000+0 0  9997
2 27528   2.7068  86.3236 0001842 248.3719 316.5554  1.00278543 27936
INTEGRAL                
1 27540U 02048A   22124.85555556  .00000168  00000+0  00000+0 0  9990
2 27540  74.0303  62.1275 8923731 299.0082   8.5987  0.37595251 20986
TDRS 10                 
1 27566U 02055A   22129.53988970  .00000099  00000+0  00000+0 0  9999
2 27566   8.1343  50.1839 0009468 339.7720 220.8637  1.00280266 71192
NSS-6                   
1 27603U 02057A   22129.54136619  .00000115  00000+0  00000+0 0  9998
2 27603   1.5121  92.0029 0003624 320.4589 200.2287  1.00270968 71000
LATINSAT B              
1 27606U 02058B   22129.47836737  .00000316  00000+0  68689-4 0  9997
2 27606  64.5539 149.1291 0083609 310.8338  48.5534 14.72557406 40952
SAUDISAT 1C (SO-50)     
1 27607U 02058C   22129.29765379  .00000737  00000+0  12224-3 0  9991
2 27607  64.5558  61.7174 0076195 302.1404  57.2320 14.76066580 42597
LATINSAT A              
1 27612U 02058H   22129.53286708  .00000441  00000+0  76110-4 0  9995
2 27612  64.5551 276.3168 0059177 280.8317  78.6131 14.79845298 45324
NIMIQ 2                 
1 27632U 02062A   22129.44891171 -.00000058  00000+0  00000+0 0  9993
2 27632   5.9170  70.8544 0004174  37.7165 171.1205  1.00272970 29148
CORIOLIS                
1 27640U 03001A   22129.61655182  .00000060  00000+0  49469-4 0  9994
2 27640  98.7188 139.2226 0013673 205.1343 265.1617 14.19123004  1447
SORCE                   
1 27651U 03004A   22129.18545880  .00001134  00000+0  12962-3 0  9994
2 27651  39.9956  76.7325 0023716 199.5967 160.3912 14.89802756 47215
NAVSTAR 51 (USA 166)    
1 27663U 03005A   22129.37479983 -.00000015  00000+0  00000+0 0  9993
2 27663  55.5399 274.6117 0126095  40.9263 316.9634  2.00566903141220
USA 167                 
1 27691U 03008A   22129.59088929  .00000063  00000+0  00000+0 0  9999
2 27691   7.9681  54.8591 0003121   2.2876 252.8055  1.00273882 17918
NAVSTAR 52 (USA 168)    
1 27704U 03010A   22129.56615743 -.00000087  00000+0  00000+0 0  9991
2 27704  55.0101  24.8803 0245485 305.0275  49.3251  2.00554147140028
USA 169 (MILSTAR-2 4)   
1 27711U 03012A   22129.56709866 -.00000187  00000+0  00000+0 0  9992
2 27711  10.0687  40.4883 0001795   1.9034 181.2799  1.00271559 17913
GALAXY 12 (G-12)        
1 27715U 03013B   22129.59361705  .00000066  00000+0  00000+0 0  9991
2 27715   3.1744  85.9300 0002265 334.9453 251.2162  1.00272685 37059
ASIASAT 4               
1 27718U 03014A   22129.71535586 -.00000214  00000+0  00000+0 0  9995
2 27718   0.8707  94.4173 0003011 281.3468 256.7620  1.00274654 69882
HELLAS-SAT 2            
1 27811U 03020A   22129.57206674 -.00000073  00000+0  00000+0 0  9996
2 27811   3.5897  84.9751 0006199 318.3003  20.0576  1.00271918 27806
THURAYA-2               
1 27825U 03026A   22129.59113027  .00000135  00000+0  00000+0 0  9996
2 27825   6.6873  34.4280 0002669 355.0136  94.7337  1.00273175 69311
